IRIDIUM 106             
1 41917U 17003A   24286.52789454  .00001124  00000+0  39415-3 0  9991
2 41917  86.4007 344.5673 0002562  96.7645 263.3842 14.34220442405398
IRIDIUM 103             
1 41918U 17003B   24286.44543683  .00000386  00000+0  13085-3 0  9999
2 41918  86.4006 344.5030 0002154 110.1207 250.0221 14.34219556405407
IRIDIUM 109             
1 41919U 17003C   24286.52155044  .00000660  00000+0  22874-3 0  9990
2 41919  86.4008 344.5206 0001788  98.3116 261.8282 14.34216234405387
IRIDIUM 102             
1 41920U 17003D   24286.42006859  .00000997  00000+0  34894-3 0  9998
2 41920  86.4007 344.5001 0002260  86.7016 273.4438 14.34216999405455
IRIDIUM 105             
1 41921U 17003E   24286.53034724  .00000144  00000+0  44418-4 0  9991
2 41921  86.3946 312.8897 0002309  94.5297 265.6163 14.34212152407323
IRIDIUM 104             
1 41922U 17003F   24286.43275553  .00000875  00000+0  30519-3 0  9995
2 41922  86.4007 344.5274 0001663 100.0534 260.0849 14.34217980405448
IRIDIUM 114             
1 41923U 17003G   24286.16002846  .00001292  00000+0  45411-3 0  9990
2 41923  86.4008 344.6269 0002262  99.0856 261.0595 14.34215897405382
IRIDIUM 108             
1 41924U 17003H   24286.53715766  .00000555  00000+0  19095-3 0  9994
2 41924  86.3941 312.8039 0002426  91.2704 268.8770 14.34218788407292
